NORAD_CAT_ID,OBJECT_NAME,OBJECT_TYPE,EPOCH,MEAN_MOTION,ECCENTRICITY,INCLINATION,RA_OF_ASC_NODE,ARG_OF_PERICENTER,MEAN_ANOMALY,BSTAR,MEAN_MOTION_DOT,MEAN_MOTION_DDOT,TLE_LINE0,TLE_LINE1,TLE_LINE2,SEMIMAJOR_AXIS,PERIOD,APOGEE,PERIGEE,DECAYED
52989.0,STARLINK-4293,PAYLOAD,2022-08-08 22:00:00,15.42429087,0.0001548,53.2173,221.0552,44.1525,229.503,-0.028031,-0.01126306,0.0,0 STARLINK-4293,1 52989U 22076D   22220.91667824 -.01126306  00000-0 -28031-1 0  9997,2 52989  53.2173 221.0552 0001548  44.1525 229.5030 15.42429087  1309,6817.08,93.359,440.0,437.889,0.0
52989.0,STARLINK-4293,PAYLOAD,2022-08-09 12:00:00,15.41023759,0.0001588,53.2173,218.3041,42.084,231.0008,-0.029337,-0.01124578,0.0,0 STARLINK-4293,1 52989U 22076D   22221.50001157 -.01124578  00000-0 -29337-1 0  9993,2 52989  53.2173 218.3041 0001588  42.0840 231.0008 15.41023759  5663,6821.224,93.444,444.172,442.005,0.0
52989.0,STARLINK-4293,PAYLOAD,2022-08-09 14:00:01,15.4082581,0.0001567,53.2173,217.9106,36.0066,339.6123,-0.029671,-0.01129431,0.0,0 STARLINK-4293,1 52989U 22076D   22221.58334491 -.01129431  00000-0 -29671-1 0  9995,2 52989  53.2173 217.9106 0001567  36.0066 339.6123 15.40825810  1307,6821.808000000001,93.456,444.742,442.604,0.0
52989.0,STARLINK-4293,PAYLOAD,2022-08-09 22:00:00,15.40020048,0.0001816,53.2174,216.3387,31.3499,33.8068,-0.030364,-0.01125621,0.0,0 STARLINK-4293,1 52989U 22076D   22221.91667824 -.01125621  00000-0 -30364-1 0  9999,2 52989  53.2174 216.3387 0001816  31.3499  33.8068 15.40020048  1308,6824.187,93.505,447.291,444.81300000000016,0.0
52989.0,STARLINK-4293,PAYLOAD,2022-08-10 04:00:00,15.39418565,0.0002073,53.2176,215.1638,21.9683,349.7055,-0.030987,-0.01126071,0.0,0 STARLINK-4293,1 52989U 22076D   22222.16667824 -.01126071  00000-0 -30987-1 0  9998,2 52989  53.2176 215.1638 0002073  21.9683 349.7055 15.39418565  5764,6825.965,93.542,449.245,446.415,0.0
52989.0,STARLINK-4293,PAYLOAD,2022-08-10 14:00:01,15.3841546,0.0001686,53.2173,213.2053,44.386,116.9457,-0.03204,-0.01126325,0.0,0 STARLINK-4293,1 52989U 22076D   22222.58334491 -.01126325  00000-0 -32040-1 0  9999,2 52989  53.2173 213.2053 0001686  44.3860 116.9457 15.38415460  1302,6828.931,93.603,451.948,449.645,0.0
52989.0,STARLINK-4293,PAYLOAD,2022-08-10 20:00:01,15.37812118,0.0001538,53.2174,212.0306,45.3015,61.1026,-0.032638,-0.01124954,0.0,0 STARLINK-4293,1 52989U 22076D   22222.83334491 -.01124954  00000-0 -32638-1 0  9996,2 52989  53.2174 212.0306 0001538  45.3015  61.1026 15.37812118  5868,6830.717,93.64,453.633,451.532,0.0
52989.0,STARLINK-4293,PAYLOAD,2022-08-10 22:00:00,15.37612639,0.000155,53.2174,211.6395,53.1722,154.8011,-0.032909,-0.01126754,0.0,0 STARLINK-4293,1 52989U 22076D   22222.91667824 -.01126754  00000-0 -32909-1 0  9995,2 52989  53.2174 211.6395 0001550  53.1722 154.8011 15.37612639  1302,6831.308000000001,93.652,454.232,452.114,0.0
52989.0,STARLINK-4293,PAYLOAD,2022-08-11 14:00:01,15.36008383,0.0001714,53.2172,208.5174,35.9937,262.3661,-0.03475,-0.01129138,0.0,0 STARLINK-4293,1 52989U 22076D   22223.58334491 -.01129138  00000-0 -34750-1 0  9995,2 52989  53.2172 208.5174 0001714  35.9937 262.3661 15.36008383  1308,6836.064,93.749,459.101,456.757,0.0
52989.0,STARLINK-4293,PAYLOAD,2022-08-11 20:00:01,15.3540304,0.0001607,53.2172,207.3469,45.9742,195.2876,-0.035243,-0.0112348999999999,0.0,0 STARLINK-4293,1 52989U 22076D   22223.83334491 -.01123490  00000-0 -35243-1 0  9996,2 52989  53.2172 207.3469 0001607  45.9742 195.2876 15.35403040  6022,6837.861,93.786,460.824,458.627,0.0
52989.0,STARLINK-4293,PAYLOAD,2022-08-12 12:00:00,15.33800234,0.0001498,53.217,204.2358,42.9752,283.3654,-0.03725,-0.01127596,0.0,0 STARLINK-4293,1 52989U 22076D   22224.50001157 -.01127596  00000-0 -37250-1 0  9992,2 52989  53.2170 204.2358 0001498  42.9752 283.3654 15.33800234  6127,6842.623000000001,93.884,465.513,463.463,0.0
52989.0,STARLINK-4293,PAYLOAD,2022-08-12 14:00:01,15.33597617,0.0001584,53.2172,203.8467,40.6855,26.0203,-0.037397,-0.01125022,0.0,0 STARLINK-4293,1 52989U 22076D   22224.58334491 -.01125022  00000-0 -37397-1 0  9994,2 52989  53.2172 203.8467 0001584  40.6855  26.0203 15.33597617  1305,6843.226,93.897,466.175,464.007,0.0
52989.0,STARLINK-4293,PAYLOAD,2022-08-12 22:00:01,15.32793822,0.0001683,53.2175,202.2922,42.4323,65.1902,-0.038293,-0.01123137,0.0,0 STARLINK-4293,1 52989U 22076D   22224.91668981 -.01123137  00000-0 -38293-1 0  9996,2 52989  53.2175 202.2922 0001683  42.4323  65.1902 15.32793822  1302,6845.618,93.946,468.635,466.331,0.0
52989.0,STARLINK-4293,PAYLOAD,2022-08-13 04:00:00,15.32191738,0.000174,53.2173,201.1303,36.1994,11.3644,-0.039047,-0.01123623,0.0,0 STARLINK-4293,1 52989U 22076D   22225.16667824 -.01123623  00000-0 -39047-1 0  9997,2 52989  53.2173 201.1303 0001740  36.1994  11.3644 15.32191738  6229,6847.4119999999975,93.983,470.468,468.085,0.0
52989.0,STARLINK-4293,PAYLOAD,2022-08-13 14:00:01,15.31188962,0.0001718,53.2173,199.1929,45.3386,141.0291,-0.040336,-0.01124572,0.0,0 STARLINK-4293,1 52989U 22076D   22225.58334491 -.01124572  00000-0 -40336-1 0  9991,2 52989  53.2173 199.1929 0001718  45.3386 141.0291 15.31188962  1308,6850.401,94.045,473.443,471.089,0.0
52989.0,STARLINK-4293,PAYLOAD,2022-08-13 22:00:00,15.30385139,0.0001629,53.2174,197.6444,50.4944,173.8313,-0.041263,-0.01122059,0.0,0 STARLINK-4293,1 52989U 22076D   22225.91667824 -.01122059  00000-0 -41263-1 0  9995,2 52989  53.2174 197.6444 0001629  50.4944 173.8313 15.30385139  1304,6852.799,94.094,475.781,473.548,0.0
52989.0,STARLINK-4293,PAYLOAD,2022-08-14 12:00:00,15.28980695,0.0001779,53.2172,194.9425,43.1888,155.2406,-0.043167,-0.01123605,0.0,0 STARLINK-4293,1 52989U 22076D   22226.50001157 -.01123605  00000-0 -43167-1 0  9995,2 52989  53.2172 194.9425 0001779  43.1888 155.2406 15.28980695  6434,6856.995,94.18,480.08,477.64,0.0
52989.0,STARLINK-4293,PAYLOAD,2022-08-14 14:00:01,15.28781402,0.0001585,53.2173,194.5562,42.6512,254.6947,-0.043555,-0.01126425,0.0,0 STARLINK-4293,1 52989U 22076D   22226.58334491 -.01126425  00000-0 -43555-1 0  9997,2 52989  53.2173 194.5562 0001585  42.6512 254.6947 15.28781402  1306,6857.590999999999,94.193,480.543,478.369,0.0
52989.0,STARLINK-4293,PAYLOAD,2022-08-14 22:00:00,15.27975185,0.0001554,53.2175,193.0136,42.8447,289.5656,-0.044361,-0.01119733,0.0,0 STARLINK-4293,1 52989U 22076D   22226.91667824 -.01119733  00000-0 -44361-1 0  9993,2 52989  53.2175 193.0136 0001554  42.8447 289.5656 15.27975185  1300,6860.003000000002,94.242,482.934,480.802,0.0
52989.0,STARLINK-4293,PAYLOAD,2022-08-15 04:00:00,15.27371739,0.0001679,53.2173,191.8601,45.8432,222.2313,-0.045147,-0.01118783,0.0,0 STARLINK-4293,1 52989U 22076D   22227.16667824 -.01118783  00000-0 -45147-1 0  9998,2 52989  53.2173 191.8601 0001679  45.8432 222.2313 15.27371739  6535,6861.81,94.28,484.827,482.523,0.0
52989.0,STARLINK-4293,PAYLOAD,2022-08-15 14:00:01,15.26371408,0.0001635,53.2174,189.9365,37.845,1.7967,-0.046784,-0.01123964,0.0,0 STARLINK-4293,1 52989U 22076D   22227.58334491 -.01123964  00000-0 -46784-1 0  9990,2 52989  53.2174 189.9365 0001635  37.8450   1.7967 15.26371408  1301,6864.807,94.341,487.795,485.55,0.0
52989.0,STARLINK-4293,PAYLOAD,2022-08-15 20:00:01,15.25766256,0.0001643,53.2173,188.7833,38.3107,295.5494,-0.047429,-0.01119151,0.0,0 STARLINK-4293,1 52989U 22076D   22227.83334491 -.01119151  00000-0 -47429-1 0  9998,2 52989  53.2173 188.7833 0001643  38.3107 295.5494 15.25766256  6638,6866.621999999999,94.379,489.616,487.359,0.0
52989.0,STARLINK-4293,PAYLOAD,2022-08-15 22:00:00,15.25566126,0.0001805,53.2174,188.3997,36.0609,35.7505,-0.047723,-0.01119301,0.0,0 STARLINK-4293,1 52989U 22076D   22227.91667824 -.01119301  00000-0 -47723-1 0  9990,2 52989  53.2174 188.3997 0001805  36.0609  35.7505 15.25566126  1308,6867.223000000001,94.391,490.328,487.848,0.0
52989.0,STARLINK-4293,PAYLOAD,2022-08-16 12:00:00,15.24163082,0.0001561999999999,53.2173,185.7173,42.023,353.7609,-0.049966,-0.01137766,0.0,0 STARLINK-4293,1 52989U 22076D   22228.50001157 -.01137766  00000-0 -49966-1 0  9993,2 52989  53.2173 185.7173 0001562  42.0230 353.7609 15.24163082  6734,6871.437,94.478,494.375,492.228,0.0
52989.0,STARLINK-4293,PAYLOAD,2022-08-16 14:00:01,15.23961804,0.0001673,53.2174,185.3338,45.9587,87.2951,-0.050211,-0.01136581,0.0,0 STARLINK-4293,1 52989U 22076D   22228.58334491 -.01136581  00000-0 -50211-1 0  9990,2 52989  53.2174 185.3338 0001673  45.9587  87.2951 15.23961804  1308,6872.042,94.491,495.056,492.757,0.0
52989.0,STARLINK-4293,PAYLOAD,2022-08-16 22:00:00,15.23157734,0.0001713,53.2176,183.8029,48.6141,113.9144,-0.051311,-0.0113409,0.0,0 STARLINK-4293,1 52989U 22076D   22228.91667824 -.01134090  00000-0 -51311-1 0  9991,2 52989  53.2176 183.8029 0001713  48.6141 113.9144 15.23157734  1301,6874.46,94.54,497.503,495.147,0.0
52989.0,STARLINK-4293,PAYLOAD,2022-08-17 06:00:02,15.22354389,0.0001783,53.2175,182.2761,47.4241,143.4765,-0.0525179999999999,-0.01133408,0.0,0 STARLINK-4293,1 52989U 22076D   22229.25002315 -.01133408  00000-0 -52518-1 0  9999,2 52989  53.2175 182.2761 0001783  47.4241 143.4765 15.22354389  6857,6876.878000000002,94.59,499.969,497.517,0.0
52989.0,STARLINK-4293,PAYLOAD,2022-08-17 14:00:01,15.215535199999998,0.0001855999999999,53.2175,180.748,40.2918,177.8903,-0.053961,-0.01136966,0.0,0 STARLINK-4293,1 52989U 22076D   22229.58334491 -.01136966  00000-0 -53961-1 0  9993,2 52989  53.2175 180.7480 0001856  40.2918 177.8903 15.21553520  1308,6879.291,94.64,502.4330000000001,499.879,0.0
52989.0,STARLINK-4293,PAYLOAD,2022-08-17 16:00:00,15.21366309,0.0001751,53.218,180.3668,31.1769,283.6834,-0.055177,-0.01154683,0.0,0 STARLINK-4293,1 52989U 22076D   22229.66667824 -.01154683  00000-0 -55177-1 0  9998,2 52989  53.2180 180.3668 0001751  31.1769 283.6834 15.21366309  6913,6879.855,94.652,502.925,500.516,0.0
